{
  "type": "FeatureCollection",
  "features": [
    {
      "type": "Feature",
      "properties": {
        "norad_id": 31877,
        "name": "FENGYUN 1C DEB",
        "group": "fengyun-1c-debris",
        "lat": -33.37226087818948,
        "lon": 77.10448267425933,
        "alt_km": 563.0505172057474,
        "timestamp": "2025-12-24T22:42:22.316018+00:00",
        "meta_object_name": "FENGYUN 1C DEB",
        "meta_object_id": "1999-025CKC",
        "meta_epoch": "2025-12-22T10:05:32.318016",
        "meta_mean_motion": 15.01738491,
        "meta_eccentricity": 0.01040219,
        "meta_inclination": 99.0051,
        "meta_ra_of_asc_node": 68.1809,
        "meta_arg_of_pericenter": 247.3975,
        "meta_mean_anomaly": 111.6215,
        "meta_ephemeris_type": 0,
        "meta_classification_type": "U",
        "meta_norad_cat_id": 31877,
        "meta_element_set_no": 999,
        "meta_rev_at_epoch": 99187,
        "meta_bstar": 0.0010146839,
        "meta_mean_motion_dot": 0.00014775,
        "meta_mean_motion_ddot": 0,
        "tle_line1": "1 31877U 99025CKC 25356.42051294  .00014775  00000+0  10147-2 0  9997",
        "tle_line2": "2 31877  99.0051  68.1809 0104021 247.3975 111.6215 15.01738491991879"
      },
      "geometry": {
        "type": "Point",
        "coordinates": [
          77.10448267425933,
          -33.37226087818948
        ]
      }
    },
    {
      "type": "Feature",
      "properties": {
        "norad_id": 31878,
        "name": "FENGYUN 1C DEB",
        "group": "fengyun-1c-debris",
        "lat": -37.66437432125369,
        "lon": 97.37975040217573,
        "alt_km": 561.2337702619707,
        "timestamp": "2025-12-24T22:42:22.316028+00:00",
        "meta_object_name": "FENGYUN 1C DEB",
        "meta_object_id": "1999-025CKD",
        "meta_epoch": "2025-12-21T12:55:43.069152",
        "meta_mean_motion": 14.86026303,
        "meta_eccentricity": 0.0083415,
        "meta_inclination": 99.4418,
        "meta_ra_of_asc_node": 280.7207,
        "meta_arg_of_pericenter": 210.3879,
        "meta_mean_anomaly": 149.2482,
        "meta_ephemeris_type": 0,
        "meta_classification_type": "U",
        "meta_norad_cat_id": 31878,
        "meta_element_set_no": 999,
        "meta_rev_at_epoch": 98224,
        "meta_bstar": 0.00093453,
        "meta_mean_motion_dot": 8.633e-05,
        "meta_mean_motion_ddot": 0,
        "tle_line1": "1 31878U 99025CKD 25355.53869293  .00008633  00000+0  93453-3 0  9993",
        "tle_line2": "2 31878  99.4418 280.7207 0083415 210.3879 149.2482 14.86026303982249"
      },
      "geometry": {
        "type": "Point",
        "coordinates": [
          97.37975040217573,
          -37.66437432125369
        ]
      }
    },
    {
      "type": "Feature",
      "properties": {
        "norad_id": 31879,
        "name": "FENGYUN 1C DEB",
        "group": "fengyun-1c-debris",
        "lat": -79.88974296146924,
        "lon": -47.15278934564964,
        "alt_km": 749.346273093196,
        "timestamp": "2025-12-24T22:42:22.316038+00:00",
        "meta_object_name": "FENGYUN 1C DEB",
        "meta_object_id": "1999-025CKE",
        "meta_epoch": "2025-12-22T02:52:04.689408",
        "meta_mean_motion": 14.42929876,
        "meta_eccentricity": 0.02096328,
        "meta_inclination": 99.7075,
        "meta_ra_of_asc_node": 235.8895,
        "meta_arg_of_pericenter": 9.6265,
        "meta_mean_anomaly": 350.8843,
        "meta_ephemeris_type": 0,
        "meta_classification_type": "U",
        "meta_norad_cat_id": 31879,
        "meta_element_set_no": 999,
        "meta_rev_at_epoch": 63345,
        "meta_bstar": 0.0003150512,
        "meta_mean_motion_dot": 1.306e-05,
        "meta_mean_motion_ddot": 0,
        "tle_line1": "1 31879U 99025CKE 25356.11949872  .00001306  00000+0  31505-3 0  9991",
        "tle_line2": "2 31879  99.7075 235.8895 0209632   9.6265 350.8843 14.42929876633451"
      },
      "geometry": {
        "type": "Point",
        "coordinates": [
          -47.15278934564964,
          -79.88974296146924
        ]
      }
    },
    {
      "type": "Feature",
      "properties": {
        "norad_id": 31880,
        "name": "FENGYUN 1C DEB",
        "group": "fengyun-1c-debris",
        "lat": -1.9579213251714833,
        "lon": 163.03662946194603,
        "alt_km": 981.8734489780763,
        "timestamp": "2025-12-24T22:42:22.316048+00:00",
        "meta_object_name": "FENGYUN 1C DEB",
        "meta_object_id": "1999-025CKF",
        "meta_epoch": "2025-12-23T17:20:07.380960",
        "meta_mean_motion": 13.89415014,
        "meta_eccentricity": 0.01272675,
        "meta_inclination": 100.0295,
        "meta_ra_of_asc_node": 161.3731,
        "meta_arg_of_pericenter": 123.1023,
        "meta_mean_anomaly": 238.2424,
        "meta_ephemeris_type": 0,
        "meta_classification_type": "U",
        "meta_norad_cat_id": 31880,
        "meta_element_set_no": 999,
        "meta_rev_at_epoch": 63132,
        "meta_bstar": 0.0003727292,
        "meta_mean_motion_dot": 4.36e-06,
        "meta_mean_motion_ddot": 0,
        "tle_line1": "1 31880U 99025CKF 25357.72230765  .00000436  00000+0  37273-3 0  9996",
        "tle_line2": "2 31880 100.0295 161.3731 0127267 123.1023 238.2424 13.89415014631324"
      },
      "geometry": {
        "type": "Point",
        "coordinates": [
          163.03662946194603,
          -1.9579213251714833
        ]
      }
    },
    {
      "type": "Feature",
      "properties": {
        "norad_id": 31882,
        "name": "FENGYUN 1C DEB",
        "group": "fengyun-1c-debris",
        "lat": -68.81504942551271,
        "lon": 77.52870311434363,
        "alt_km": 843.8204275279422,
        "timestamp": "2025-12-24T22:42:22.316058+00:00",
        "meta_object_name": "FENGYUN 1C DEB",
        "meta_object_id": "1999-025CKH",
        "meta_epoch": "2025-12-18T00:40:31.724544",
        "meta_mean_motion": 14.12983565,
        "meta_eccentricity": 0.0035355,
        "meta_inclination": 98.9173,
        "meta_ra_of_asc_node": 274.5372,
        "meta_arg_of_pericenter": 209.4535,
        "meta_mean_anomaly": 150.4646,
        "meta_ephemeris_type": 0,
        "meta_classification_type": "U",
        "meta_norad_cat_id": 31882,
        "meta_element_set_no": 999,
        "meta_rev_at_epoch": 58711,
        "meta_bstar": 0.0005205777,
        "meta_mean_motion_dot": 9.32e-06,
        "meta_mean_motion_ddot": 0,
        "tle_line1": "1 31882U 99025CKH 25352.02814496  .00000932  00000+0  52058-3 0  9994",
        "tle_line2": "2 31882  98.9173 274.5372 0035355 209.4535 150.4646 14.12983565587112"
      },
      "geometry": {
        "type": "Point",
        "coordinates": [
          77.52870311434363,
          -68.81504942551271
        ]
      }
    },
    {
      "type": "Feature",
      "properties": {
        "norad_id": 31883,
        "name": "FENGYUN 1C DEB",
        "group": "fengyun-1c-debris",
        "lat": -16.606892200997613,
        "lon": 94.10088322342433,
        "alt_km": 757.4580864525924,
        "timestamp": "2025-12-24T22:42:22.316068+00:00",
        "meta_object_name": "FENGYUN 1C DEB",
        "meta_object_id": "1999-025CKJ",
        "meta_epoch": "2025-12-24T05:27:29.012832",
        "meta_mean_motion": 14.67836986,
        "meta_eccentricity": 0.01245715,
        "meta_inclination": 99.0288,
        "meta_ra_of_asc_node": 276.027,
        "meta_arg_of_pericenter": 34.0788,
        "meta_mean_anomaly": 326.8334,
        "meta_ephemeris_type": 0,
        "meta_classification_type": "U",
        "meta_norad_cat_id": 31883,
        "meta_element_set_no": 999,
        "meta_rev_at_epoch": 98147,
        "meta_bstar": 0.0010292614,
        "meta_mean_motion_dot": 6.548e-05,
        "meta_mean_motion_ddot": 0,
        "tle_line1": "1 31883U 99025CKJ 25358.22741913  .00006548  00000+0  10293-2 0  9999",
        "tle_line2": "2 31883  99.0288 276.0270 0124571  34.0788 326.8334 14.67836986981471"
      },
      "geometry": {
        "type": "Point",
        "coordinates": [
          94.10088322342433,
          -16.606892200997613
        ]
      }
    },
    {
      "type": "Feature",
      "properties": {
        "norad_id": 31887,
        "name": "FENGYUN 1C DEB",
        "group": "fengyun-1c-debris",
        "lat": -76.68071011887317,
        "lon": -172.91732847274025,
        "alt_km": 700.7085092733605,
        "timestamp": "2025-12-24T22:42:22.316079+00:00",
        "meta_object_name": "FENGYUN 1C DEB",
        "meta_object_id": "1999-025CKN",
        "meta_epoch": "2025-12-17T21:29:51.977472",
        "meta_mean_motion": 14.57822744,
        "meta_eccentricity": 0.00239553,
        "meta_inclination": 99.5345,
        "meta_ra_of_asc_node": 44.2427,
        "meta_arg_of_pericenter": 348.6821,
        "meta_mean_anomaly": 11.3832,
        "meta_ephemeris_type": 0,
        "meta_classification_type": "U",
        "meta_norad_cat_id": 31887,
        "meta_element_set_no": 999,
        "meta_rev_at_epoch": 96683,
        "meta_bstar": 0.00059528528,
        "meta_mean_motion_dot": 2.676e-05,
        "meta_mean_motion_ddot": 0,
        "tle_line1": "1 31887U 99025CKN 25351.89574048  .00002676  00000+0  59529-3 0  9996",
        "tle_line2": "2 31887  99.5345  44.2427 0023955 348.6821  11.3832 14.57822744966837"
      },
      "geometry": {
        "type": "Point",
        "coordinates": [
          -172.91732847274025,
          -76.68071011887317
        ]
      }
    }
  ]
}